STARLINK-36854
1 68312U 26057U   26092.83335647 -.01584919  69267-3 -53630-2 0  9999
2 68312  97.2752 216.3828 0001506  75.6192 120.3673 15.90012446  3092
